{"type": "FeatureCollection", "features": [ {"type": "Feature", "properties": {"norad_id": 40115, "name": "WORLDVIEW-3 (WV-3)", "group": "resource", "lat": 8.148836650421488, "lon": 55.79376911910939, "alt_km": 617.0927015199168, "timestamp": "2025-12-10T14:53:36.779716+00:00", "meta": {"OBJECT_NAME": "WORLDVIEW-3 (WV-3)", "OBJECT_ID": "2014-048A", "EPOCH": "2025-12-10T06:46:24.806784", "MEAN_MOTION": 14.85502006, "ECCENTRICITY": 0.00045574, "INCLINATION": 97.8618, "RA_OF_ASC_NODE": 56.5934, "ARG_OF_PERICENTER": 193.1152, "MEAN_ANOMALY": 166.9945, "EPHEMERIS_TYPE": 0, "CLASSIFICATION_TYPE": "U", "NORAD_CAT_ID": 40115, "ELEMENT_SET_NO": 999, "REV_AT_EPOCH": 61387, "BSTAR": 0.00022167249, "MEAN_MOTION_DOT": 1.86e-05, "MEAN_MOTION_DDOT": 0}, "tle": {"line1": "1 40115U 14048A   25344.28223156  .00001860  00000+0  22167-3 0  9990", "line2": "2 40115  97.8618  56.5934 0004557 193.1152 166.9945 14.85502006613873"}}, "geometry": {"type": "Point", "coordinates": [55.79376911910939, 8.148836650421488]}}, {"type": "Feature", "properties": {"norad_id": 40118, "name": "GAOFEN-2", "group": "resource", "lat": -42.70927926195147, "lon": -143.71032056841952, "alt_km": 635.5739957059777, "timestamp": "2025-12-10T14:53:36.779725+00:00", "meta": {"OBJECT_NAME": "GAOFEN-2", "OBJECT_ID": "2014-049A", "EPOCH": "2025-12-10T07:24:06.325056", "MEAN_MOTION": 14.80600393, "ECCENTRICITY": 0.00084606, "INCLINATION": 98.0383, "RA_OF_ASC_NODE": 43.4724, "ARG_OF_PERICENTER": 119.4907, "MEAN_ANOMALY": 240.7149, "EPHEMERIS_TYPE": 0, "CLASSIFICATION_TYPE": "U", "NORAD_CAT_ID": 40118, "ELEMENT_SET_NO": 999, "REV_AT_EPOCH": 61128, "BSTAR": 0.00012500748, "MEAN_MOTION_DOT": 9.06e-06, "MEAN_MOTION_DDOT": 0}, "tle": {"line1": "1 40118U 14049A   25344.30840654  .00000906  00000+0  12501-3 0  9996", "line2": "2 40118  98.0383  43.4724 0008460 119.4907 240.7149 14.80600393611289"}}, "geometry": {"type": "Point", "coordinates": [-143.71032056841952, -42.70927926195147]}}, {"type": "Feature", "properties": {"norad_id": 40143, "name": "YAOGAN-21", "group": "resource", "lat": -38.45931765097333, "lon": -157.71806569139088, "alt_km": 508.1159601389236, "timestamp": "2025-12-10T14:53:36.779734+00:00", "meta": {"OBJECT_NAME": "YAOGAN-21", "OBJECT_ID": "2014-053A", "EPOCH": "2025-12-10T07:37:55.792704", "MEAN_MOTION": 15.23635036, "ECCENTRICITY": 0.000992, "INCLINATION": 97.1758, "RA_OF_ASC_NODE": 27.7357, "ARG_OF_PERICENTER": 49.077, "MEAN_ANOMALY": 311.1325, "EPHEMERIS_TYPE": 0, "CLASSIFICATION_TYPE": "U", "NORAD_CAT_ID": 40143, "ELEMENT_SET_NO": 999, "REV_AT_EPOCH": 62617, "BSTAR": 0.00046307538, "MEAN_MOTION_DOT": 0.00011049, "MEAN_MOTION_DDOT": 0}, "tle": {"line1": "1 40143U 14053A   25344.31800686  .00011049  00000+0  46308-3 0  9993", "line2": "2 40143  97.1758  27.7357 0009920  49.0770 311.1325 15.23635036626171"}}, "geometry": {"type": "Point", "coordinates": [-157.71806569139088, -38.45931765097333]}}, {"type": "Feature", "properties": {"norad_id": 40275, "name": "YAOGAN-22", "group": "resource", "lat": -18.556888930135095, "lon": -55.64347478505362, "alt_km": 1204.0594243389041, "timestamp": "2025-12-10T14:53:36.779744+00:00", "meta": {"OBJECT_NAME": "YAOGAN-22", "OBJECT_ID": "2014-063A", "EPOCH": "2025-12-10T06:35:04.748928", "MEAN_MOTION": 13.15522547, "ECCENTRICITY": 0.00059467, "INCLINATION": 100.7419, "RA_OF_ASC_NODE": 127.6591, "ARG_OF_PERICENTER": 254.3838, "MEAN_ANOMALY": 105.6617, "EPHEMERIS_TYPE": 0, "CLASSIFICATION_TYPE": "U", "NORAD_CAT_ID": 40275, "ELEMENT_SET_NO": 999, "REV_AT_EPOCH": 53497, "BSTAR": 0.00011083219, "MEAN_MOTION_DOT": -5e-08, "MEAN_MOTION_DDOT": 0}, "tle": {"line1": "1 40275U 14063A   25344.27436052 -.00000005  00000+0  11083-3 0  9990", "line2": "2 40275 100.7419 127.6591 0005946 254.3838 105.6617 13.15522547534979"}}, "geometry": {"type": "Point", "coordinates": [-55.64347478505362, -18.556888930135095]}}, {"type": "Feature", "properties": {"norad_id": 40298, "name": "ASNARO", "group": "resource", "lat": -60.71937223845151, "lon": 73.95530472446954, "alt_km": 518.4807471876111, "timestamp": "2025-12-10T14:53:36.779753+00:00", "meta": {"OBJECT_NAME": "ASNARO", "OBJECT_ID": "2014-070A", "EPOCH": "2025-12-10T07:15:41.819040", "MEAN_MOTION": 15.19410544, "ECCENTRICITY": 0.00054429, "INCLINATION": 97.3647, "RA_OF_ASC_NODE": 60.3089, "ARG_OF_PERICENTER": 128.6711, "MEAN_ANOMALY": 231.5011, "EPHEMERIS_TYPE": 0, "CLASSIFICATION_TYPE": "U", "NORAD_CAT_ID": 40298, "ELEMENT_SET_NO": 999, "REV_AT_EPOCH": 61532, "BSTAR": 0.00076669307, "MEAN_MOTION_DOT": 0.00016196, "MEAN_MOTION_DDOT": 0}, "tle": {"line1": "1 40298U 14070A   25344.30256735  .00016196  00000+0  76669-3 0  9993", "line2": "2 40298  97.3647  60.3089 0005442 128.6711 231.5011 15.19410544615322"}}, "geometry": {"type": "Point", "coordinates": [73.95530472446954, -60.71937223845151]}}, {"type": "Feature", "properties": {"norad_id": 40310, "name": "YAOGAN-24", "group": "resource", "lat": -59.73168535966715, "lon": -78.46272244604113, "alt_km": 649.7066757854509, "timestamp": "2025-12-10T14:53:36.779762+00:00", "meta": {"OBJECT_NAME": "YAOGAN-24", "OBJECT_ID": "2014-072A", "EPOCH": "2025-12-10T07:18:01.507104", "MEAN_MOTION": 14.76167065, "ECCENTRICITY": 0.00146285, "INCLINATION": 98.1225, "RA_OF_ASC_NODE": 115.3842, "ARG_OF_PERICENTER": 145.3363, "MEAN_ANOMALY": 214.8802, "EPHEMERIS_TYPE": 0, "CLASSIFICATION_TYPE": "U", "NORAD_CAT_ID": 40310, "ELEMENT_SET_NO": 999, "REV_AT_EPOCH": 59585, "BSTAR": 0.00014119282, "MEAN_MOTION_DOT": 9.25e-06, "MEAN_MOTION_DDOT": 0}, "tle": {"line1": "1 40310U 14072A   25344.30418411  .00000925  00000+0  14119-3 0  9996", "line2": "2 40310  98.1225 115.3842 0014628 145.3363 214.8802 14.76167065595857"}}, "geometry": {"type": "Point", "coordinates": [-78.46272244604113, -59.73168535966715]}}, {"type": "Feature", "properties": {"norad_id": 40336, "name": "CBERS 4", "group": "resource", "lat": -67.75411545013749, "lon": 63.70126536078031, "alt_km": 781.7338747099666, "timestamp": "2025-12-10T14:53:36.779771+00:00", "meta": {"OBJECT_NAME": "CBERS 4", "OBJECT_ID": "2014-079A", "EPOCH": "2025-12-10T06:51:06.489792", "MEAN_MOTION": 14.35516543, "ECCENTRICITY": 0.00016003, "INCLINATION": 98.3307, "RA_OF_ASC_NODE": 42.3861, "ARG_OF_PERICENTER": 114.8044, "MEAN_ANOMALY": 245.3309, "EPHEMERIS_TYPE": 0, "CLASSIFICATION_TYPE": "U", "NORAD_CAT_ID": 40336, "ELEMENT_SET_NO": 999, "REV_AT_EPOCH": 57685, "BSTAR": 0.00012367799, "MEAN_MOTION_DOT": 3.14e-06, "MEAN_MOTION_DDOT": 0}, "tle": {"line1": "1 40336U 14079A   25344.28549178  .00000314  00000+0  12368-3 0  9999", "line2": "2 40336  98.3307  42.3861 0001600 114.8044 245.3309 14.35516543576855"}}, "geometry": {"type": "Point", "coordinates": [63.70126536078031, -67.75411545013749]}}, {"type": "Feature", "properties": {"norad_id": 40362, "name": "YAOGAN-26", "group": "resource", "lat": 4.977924129934143, "lon": 165.98828038590761, "alt_km": 454.4169908023114, "timestamp": "2025-12-10T14:53:36.779780+00:00", "meta": {"OBJECT_NAME": "YAOGAN-26", "OBJECT_ID": "2014-088A", "EPOCH": "2025-12-10T06:20:06.529344", "MEAN_MOTION": 15.39167784, "ECCENTRICITY": 0.00065831, "INCLINATION": 97.0651, "RA_OF_ASC_NODE": 345.0254, "ARG_OF_PERICENTER": 35.7065, "MEAN_ANOMALY": 324.4621, "EPHEMERIS_TYPE": 0, "CLASSIFICATION_TYPE": "U", "NORAD_CAT_ID": 40362, "ELEMENT_SET_NO": 999, "REV_AT_EPOCH": 60856, "BSTAR": 0.00088237296, "MEAN_MOTION_DOT": 0.00034312, "MEAN_MOTION_DDOT": 0}, "tle": {"line1": "1 40362U 14088A   25344.26396446  .00034312  00000+0  88237-3 0  9997", "line2": "2 40362  97.0651 345.0254 0006583  35.7065 324.4621 15.39167784608564"}}, "geometry": {"type": "Point", "coordinates": [165.98828038590761, 4.977924129934143]}}, {"type": "Feature", "properties": {"norad_id": 40376, "name": "SMAP", "group": "resource", "lat": -75.89557102063903, "lon": 24.045591599208485, "alt_km": 690.5537473282775, "timestamp": "2025-12-10T14:53:36.779790+00:00", "meta": {"OBJECT_NAME": "SMAP", "OBJECT_ID": "2015-003A", "EPOCH": "2025-12-10T07:02:46.605408", "MEAN_MOTION": 14.63340156, "ECCENTRICITY": 0.00012032, "INCLINATION": 98.1291, "RA_OF_ASC_NODE": 349.0527, "ARG_OF_PERICENTER": 88.6, "MEAN_ANOMALY": 271.534, "EPHEMERIS_TYPE": 0, "CLASSIFICATION_TYPE": "U", "NORAD_CAT_ID": 40376, "ELEMENT_SET_NO": 999, "REV_AT_EPOCH": 57999, "BSTAR": 0.00019042818, "MEAN_MOTION_DOT": 9.36e-06, "MEAN_MOTION_DDOT": 0}, "tle": {"line1": "1 40376U 15003A   25344.29359497  .00000936  00000+0  19043-3 0  9992", "line2": "2 40376  98.1291 349.0527 0001203  88.6000 271.5340 14.63340156579994"}}, "geometry": {"type": "Point", "coordinates": [24.045591599208485, -75.89557102063903]}}, {"type": "Feature", "properties": {"norad_id": 40536, "name": "KOMPSAT-3A", "group": "resource", "lat": 77.2155846912953, "lon": -77.63799486115686, "alt_km": 425.62113821459843, "timestamp": "2025-12-10T14:53:36.779800+00:00", "meta": {"OBJECT_NAME": "KOMPSAT-3A", "OBJECT_ID": "2015-014A", "EPOCH": "2025-12-10T05:12:56.689056", "MEAN_MOTION": 15.4379758, "ECCENTRICITY": 0.00046438, "INCLINATION": 97.6792, "RA_OF_ASC_NODE": 318.4244, "ARG_OF_PERICENTER": 132.5622, "MEAN_ANOMALY": 227.6018, "EPHEMERIS_TYPE": 0, "CLASSIFICATION_TYPE": "U", "NORAD_CAT_ID": 40536, "ELEMENT_SET_NO": 999, "REV_AT_EPOCH": 59256, "BSTAR": 0.00060968888, "MEAN_MOTION_DOT": 0.00027578, "MEAN_MOTION_DDOT": 0}, "tle": {"line1": "1 40536U 15014A   25344.21732279  .00027578  00000+0  60969-3 0  9991", "line2": "2 40536  97.6792 318.4244 0004643 132.5622 227.6018 15.43797580592566"}}, "geometry": {"type": "Point", "coordinates": [-77.63799486115686, 77.2155846912953]}}]}